{"type":"FeatureCollection","features":[{"type":"Feature","properties":{"code":"AD","nom":"Andorra"},"geometry":{"type":"Polygon","coordinates":[[[1.419,42.43],[1.428,42.435],[1.442,42.432],[1.46,42.44],[1.478,42.435],[1.488,42.45],[1.495,42.465],[1.512,42.475],[1.535,42.47],[1.555,42.48],[1.572,42.495],[1.59,42.505],[1.62,42.5],[1.65,42.505],[1.68,42.512],[1.72,42.517],[1.745,42.52],[1.78,42.525],[1.77,42.54],[1.76,42.56],[1.75,42.59],[1.73,42.62],[1.715,42.64],[1.695,42.65],[1.68,42.64],[1.665,42.625],[1.635,42.635],[1.615,42.65],[1.58,42.655],[1.555,42.64],[1.528,42.625],[1.5,42.615],[1.475,42.6],[1.455,42.58],[1.445,42.555],[1.438,42.525],[1.43,42.495],[1.42,42.465],[1.419,42.43]]]}}]}